AKEBONO (EXOS-D)        
1 19822U 89016A   20230.55912168  .00022104  67746-6  38539-3 0  9996
2 19822  75.0103 352.9844 1720796 204.4473 146.4600 12.10634880 46993
HST                     
1 20580U 90037B   20230.53226288  .00000349  00000-0  10222-4 0  9994
2 20580  28.4694 275.6789 0002860  33.6116 115.0879 15.09418243465205
POLAR                   
1 23802U 96013A   20228.99702860  .00000311  00000-0  00000-0 0  9994
2 23802  78.7071 249.0733 6268099 281.3209  18.5958  1.29846559117161
SWAS                    
1 25560U 98071A   20230.38750801  .00000024  00000-0  10842-4 0  9997
2 25560  69.8971 230.3326 0010989 255.3673 104.6265 14.93896133178341
ORSTED                  
1 25635U 99008B   20230.50879686  .00000032  00000-0  14909-4 0  9995
2 25635  96.4451 240.4139 0139424 155.0869 205.7145 14.48217642133451
CXO                     
1 25867U 99040B   20232.63488707  .00000632  00000-0  00000+0 0  9992
2 25867  61.3917 265.3546 7840479 227.4704   0.4385  0.37809321 20435
XMM-NEWTON              
1 25989U 99066A   20231.37791124  .00000261  00000-0  00000-0 0  9994
2 25989  71.1019 319.4316 7035914  92.7355   0.4962  0.50134546 12339
TERRA                   
1 25994U 99068A   20230.49233380 -.00000033  00000-0  27241-5 0  9998
2 25994  98.2098 303.9195 0001167 102.4072 257.7265 14.57110331 99208
CLUSTER II-FM7 (SAMBA)  
1 26410U 00041A   20232.67710001 -.00000090  00000-0  00000+0 0  9998
2 26410 132.0195 342.1193 4471202 184.8882 359.2773  0.44190177 22629
CLUSTER II-FM6 (SALSA)  
1 26411U 00041B   20223.72976033 -.00000047  00000-0  00000+0 0  9996
2 26411 132.0619 343.3938 5776125 190.4324 359.2889  0.44214292 21899
CLUSTER II-FM5 (RUMBA)  
1 26463U 00045A   20232.73461283 -.00000120  00000-0  00000+0 0  9996
2 26463 135.7253 343.1441 5391709 190.3922 359.3173  0.44215236 23204
CLUSTER II-FM8 (TANGO)  
1 26464U 00045B   20232.66631175 -.00000090  00000-0  00000-0 0  9995
2 26464 132.0226 342.1126 4467158 184.8782 359.3067  0.44218492 10875
ODIN                    
1 26702U 01007A   20230.56341052 -.00000025  00000-0  24292-5 0  9990
2 26702  97.5535 246.5074 0012497  62.8482 297.4019 15.08138663 65424
TIMED                   
1 26998U 01055B   20230.57108668  .00000044  00000-0  88645-5 0  9997
2 26998  74.0727 171.5282 0002430 252.6158 107.4757 14.88207147 13554
RHESSI                  
1 27370U 02004A   20230.51065134  .00001534  00000-0  51448-4 0  9996
2 27370  38.0322 167.8174 0010621 118.8045 241.3794 15.32990885 23702
INTEGRAL                
1 27540U 02048A   20228.00295890  .00000825  00000-0  00000+0 0  9993
2 27540  55.9698 109.2063 8972988 293.2072   2.1029  0.37578338 18613
CORIOLIS                
1 27640U 03001A   20230.55641490  .00000001  00000-0  21627-4 0  9997
2 27640  98.7265 239.0635 0013412 217.7253 251.8120 14.19044441912108
SORCE                   
1 27651U 03004A   20230.47024722  .00000004  00000-0  14641-4 0  9997
2 27651  39.9967 349.7537 0021430  87.0018 273.3223 14.89136363953292
MOST                    
1 27843U 03031D   20230.54724340 -.00000012  00000-0  14610-4 0  9997
2 27843  98.7100 236.9588 0008892 278.7760  81.2410 14.20615551888275
SCISAT 1                
1 27858U 03036A   20230.54880703  .00000040  00000-0  10724-4 0  9996
2 27858  73.9322  64.3899 0009099 259.1739 100.8411 14.77297373916674
SWIFT                   
1 28485U 04047A   20230.51028067  .00000719  00000-0  18479-4 0  9998
2 28485  20.5572 317.4429 0011289 108.4770 251.6892 15.04654734862680
FORMOSAT-3 FM6          
1 29047U 06011A   20230.59965784  .00000039  00000-0  31605-4 0  9991
2 29047  71.9804 345.1883 0051713 315.1879  44.5085 14.28747721750052
FORMOSAT-3 FM1          
1 29048U 06011B   20230.47981938  .00000038  00000-0  31348-4 0  9991
2 29048  71.9646 256.2716 0045836 274.6969  84.8933 14.28711537752521
FORMOSAT-3 FM5          
1 29049U 06011C   20230.54743694  .00000037  00000-0  30735-4 0  9993
2 29049  72.0199  68.1284 0036453 299.7634  59.9878 14.28792819748325
FORMOSAT-3 FM3          
1 29050U 06011D   20230.37216982  .00000084  00000-0  27969-4 0  9998
2 29050  72.0146 208.3515 0051038 216.1166 143.6536 14.58938256765313
FORMOSAT-3 FM4          
1 29051U 06011E   20230.54621958  .00000051  00000-0  35646-4 0  9996
2 29051  72.0070 330.0683 0068159 180.7350 179.3698 14.28824235750915
FORMOSAT-3 FM2          
1 29052U 06011F   20230.54134336  .00000034  00000-0  29440-4 0  9992
2 29052  72.0345  44.4649 0041660 260.6177  99.0249 14.28930047748424
CLOUDSAT                
1 29107U 06016A   20230.53744699  .00000055  00000-0  20338-4 0  9996
2 29107  98.2347 177.6058 0001670 143.5074 216.6241 14.62433719761259
CALIPSO                 
1 29108U 06016B   20230.53688894  .00000057  00000-0  20637-4 0  9995
2 29108  98.2331 177.3764 0001418  75.2992 284.8366 14.62431347761243
HINODE (SOLAR-B)        
1 29479U 06041A   20230.54895017  .00000057  00000-0  19645-4 0  9999
2 29479  98.1593 241.8549 0017237 171.8566 188.2920 14.65079538742837
SJ-6C                   
1 29505U 06046A   20230.50399033 -.00000385  00000-0 -30022-4 0  9995
2 29505  97.8156 244.0140 0004154 174.1834 185.9442 14.94892827752737
SJ-6D                   
1 29506U 06046B   20230.57304387 -.00000396  00000-0 -32225-4 0  9990
2 29506  97.8345 244.2182 0000936 305.9369  54.1769 14.93522023752294
AGILE                   
1 31135U 07013A   20230.16173014  .00002072  00000-0  28564-4 0  9994
2 31135   2.4679  79.1149 0011659  44.6131 315.4861 15.32447946741370
AIM                     
1 31304U 07015A   20230.25704498  .00000513  00000-0  32488-4 0  9998
2 31304  97.8987 115.2905 0005944 137.4680 222.7011 15.13675129729884
FGRST (GLAST)           
1 33053U 08029A   20230.58140061  .00000433  00000-0  79657-5 0  9994
2 33053  25.5836  44.0901 0012335 356.4128   3.6318 15.11359364672572
WISE                    
1 36119U 09071A   20230.55060820  .00000545  00000-0  21192-4 0  9993
2 36119  97.3242 265.9881 0003421 137.6232 222.5274 15.30190960593142
SDO                     
1 36395U 10005A   20230.22132774 -.00000092  00000-0  00000+0 0  9998
2 36395  30.4206 120.2911 0001682   3.0312 180.2080  1.00276536 38678
CRYOSAT 2               
1 36508U 10013A   20230.59368266  .00000069  00000-0  16495-4 0  9993
2 36508  92.0299 122.5693 0006701  25.0249 335.1281 14.51903380549149
X-SAT                   
1 37389U 11015C   20230.42057695 -.00000037  00000-0  19289-5 0  9998
2 37389  98.4299 283.3133 0015244 110.0854 250.1975 14.24380107484961
GCOM-W1 (SHIZUKU)       
1 38337U 12025A   20230.46259476 -.00000002  00000-0  96717-5 0  9992
2 38337  98.2112 169.5943 0002198 107.2564   5.2052 14.57114129438892
NUSTAR                  
1 38358U 12031A   20230.30072085  .00000882  00000-0  18387-4 0  9995
2 38358   6.0255 187.0275 0011291  46.2007 313.9055 14.88327096445096
NEOSSAT                 
1 39089U 13009D   20230.58417379  .00000025  00000-0  24231-4 0  9996
2 39089  98.4640  71.2028 0012504 104.2762 255.9813 14.34517923391315
IRIS                    
1 39197U 13033A   20230.50788037  .00000051  00000-0  14082-4 0  9999
2 39197  97.9605  51.9330 0028496  34.9794 325.3282 14.78745077385105
HISAKI (SPRINT-A)       
1 39253U 13049A   20230.50368846  .00000037  00000-0 -33527-4 0  9991
2 39253  29.7183 244.0378 0137332  36.5540 324.4316 13.55225092342291
CASSIOPE                
1 39265U 13055A   20230.49047670  .00002077  00000-0  56667-4 0  9993
2 39265  80.9645 250.5943 0660698 124.4031 242.1452 14.29656938356521
STSAT-3                 
1 39422U 13066G   20230.56127372  .00000124  00000-0  18359-4 0  9993
2 39422  97.5082 260.2295 0022783 354.2938   5.8017 14.89849753366234
SWARM B                 
1 39451U 13067A   20230.55439237  .00000222  00000-0  82068-5 0  9999
2 39451  87.7483 261.5150 0002709  63.5206 296.6317 15.21768629359256
SWARM A                 
1 39452U 13067B   20230.61330177  .00000813  00000-0  16436-4 0  9991
2 39452  87.3597 108.4730 0003286  99.3669 260.7960 15.44656180378624
SWARM C                 
1 39453U 13067C   20230.61323939  .00000820  00000-0  16593-4 0  9992
2 39453  87.3451 109.3063 0003280  99.3393 260.8235 15.44656976378585
BRITE-CA1 (TORONTO)     
1 40020U 14033L   20230.54074044 -.00000001  00000-0  84113-5 0  9996
2 40020  97.7316  55.2544 0086107 237.2666 122.0218 14.66655324329608
OCO 2                   
1 40059U 14035A   20230.57555080  .00000003  00000-0  10774-4 0  9999
2 40059  98.2114 170.4419 0001530  83.1313 277.0059 14.57110399325920
BRITE-PL2 (HEWELIUSZ)   
1 40119U 14049B   20230.52192964  .00000067  00000-0  14453-4 0  9992
2 40119  97.8955 322.1425 0015968 269.4068  90.5317 14.84524235324757
RESURS P2               
1 40360U 14087A   20230.47274306  .00000330  00000-0  12476-4 0  9993
2 40360  97.2447 318.0876 0008636 337.1110 214.3916 15.33614980315667
MMS 1                   
1 40482U 15011A   20227.99652778 -.00002038  00000-0  00000+0 0  9995
2 40482  29.6746 119.9606 8573671  22.8905 359.5226  0.28645886 11381
MMS 2                   
1 40483U 15011B   20227.99652778 -.00002037  00000-0  00000+0 0  9995
2 40483  29.6736 119.9613 8571163  22.8928 359.5168  0.28645887 11362
MMS 3                   
1 40484U 15011C   20230.30652912 -.00001941  00000-0  00000+0 0  9998
2 40484  29.6363 119.8734 8571369  23.0235 237.6493  0.28645608 11362
MMS 4                   
1 40485U 15011D   20227.99652778 -.00002038  00000-0  00000+0 0  9998
2 40485  29.6759 119.9755 8572892  22.8950 359.4796  0.28643550 11362
ASTROSAT                
1 40930U 15052A   20230.16778233  .00000691  00000-0  79865-5 0  9999
2 40930   5.9961 269.5628 0008199  44.8545 315.2244 14.76324857264205
DAMPE                   
1 41173U 15078A   20230.50651611  .00000046  00000-0  47878-5 0  9998
2 41173  97.3270 223.1073 0015040  41.7485  72.6007 15.23890582259699
PISAT                   
1 41784U 16059B   20230.14173553  .00000046  00000-0  17746-4 0  9990
2 41784  98.0139 284.9725 0033183 121.1409 239.3055 14.63531329207787
HXMT (HUIYAN)           
1 42758U 17034A   20230.56453888 -.00000025  00000-0  12170-4 0  9998
2 42758  43.0197  60.7358 0010103  45.3744  52.0033 15.08867218175106
FLYING LAPTOP           
1 42831U 17042G   20230.59524659  .00000069  00000-0  12263-4 0  9997
2 42831  97.5128 109.6248 0015733  82.0431 278.2573 14.91146810168407
PICSAT                  
1 43132U 18004X   20230.42367473  .00001021  00000-0  44395-4 0  9992
2 43132  97.4439 301.3846 0009191 189.2531 170.8538 15.24544068144342
ZHANGZHENG-1 (CSES)     
1 43194U 18015C   20230.50008369  .00000632  00000-0  31589-4 0  9995
2 43194  97.4425 354.7946 0013844 257.1785 167.0440 15.21023096140946
ICON                    
1 44628U 19068A   20230.57312661  .00000397  00000-0  18741-4 0  9990
2 44628  26.9913 354.7549 0018807 274.4188  85.4221 14.91718842 46569
